CCSDS_OMM_VERS = 2.0
CREATION_DATE  = 
ORIGINATOR     = 

OBJECT_NAME    = STARLINK-36080
OBJECT_ID      = 2025-278L
CENTER_NAME    = EARTH
REF_FRAME      = TEME
TIME_SYSTEM    = UTC
MEAN_ELEMENT_THEORY = SGP/SGP4

EPOCH          = 2025-12-17T08:00:04.999680
MEAN_MOTION    = 15.75528938
ECCENTRICITY   = .00026355
INCLINATION    = 42.9990
RA_OF_ASC_NODE = 223.9547
ARG_OF_PERICENTER = 263.3536
MEAN_ANOMALY   = 46.1922

EPHEMERIS_TYPE = 0
CLASSIFICATION_TYPE = U
NORAD_CAT_ID   = 66801
ELEMENT_SET_NO = 999
REV_AT_EPOCH   = 369
BSTAR          = -.10546866E-1
MEAN_MOTION_DOT = -.1461765E-1
MEAN_MOTION_DDOT = 0

CCSDS_OMM_VERS = 2.0
CREATION_DATE  = 
ORIGINATOR     = 

OBJECT_NAME    = STARLINK-35604
OBJECT_ID      = 2025-278M
CENTER_NAME    = EARTH
REF_FRAME      = TEME
TIME_SYSTEM    = UTC
MEAN_ELEMENT_THEORY = SGP/SGP4

EPOCH          = 2025-12-17T08:00:04.999680
MEAN_MOTION    = 15.75466680
ECCENTRICITY   = .00017986
INCLINATION    = 42.9991
RA_OF_ASC_NODE = 223.9842
ARG_OF_PERICENTER = 273.5760
MEAN_ANOMALY   = 24.5380

EPHEMERIS_TYPE = 0
CLASSIFICATION_TYPE = U
NORAD_CAT_ID   = 66802
ELEMENT_SET_NO = 999
REV_AT_EPOCH   = 369
BSTAR          = -.1023246E-1
MEAN_MOTION_DOT = -.1419155E-1
MEAN_MOTION_DDOT = 0

CCSDS_OMM_VERS = 2.0
CREATION_DATE  = 
ORIGINATOR     = 

OBJECT_NAME    = STARLINK-35565
OBJECT_ID      = 2025-278N
CENTER_NAME    = EARTH
REF_FRAME      = TEME
TIME_SYSTEM    = UTC
MEAN_ELEMENT_THEORY = SGP/SGP4

EPOCH          = 2025-12-17T08:00:04.999680
MEAN_MOTION    = 15.75462743
ECCENTRICITY   = .00018091
INCLINATION    = 42.9991
RA_OF_ASC_NODE = 223.9745
ARG_OF_PERICENTER = 266.0863
MEAN_ANOMALY   = 35.8611

EPHEMERIS_TYPE = 0
CLASSIFICATION_TYPE = U
NORAD_CAT_ID   = 66803
ELEMENT_SET_NO = 999
REV_AT_EPOCH   = 378
BSTAR          = -.10161413E-1
MEAN_MOTION_DOT = -.1410211E-1
MEAN_MOTION_DDOT = 0

CCSDS_OMM_VERS = 2.0
CREATION_DATE  = 
ORIGINATOR     = 

OBJECT_NAME    = STARLINK-36038
OBJECT_ID      = 2025-278P
CENTER_NAME    = EARTH
REF_FRAME      = TEME
TIME_SYSTEM    = UTC
MEAN_ELEMENT_THEORY = SGP/SGP4

EPOCH          = 2025-12-17T08:00:04.999680
MEAN_MOTION    = 15.75500199
ECCENTRICITY   = .00022472
INCLINATION    = 42.9991
RA_OF_ASC_NODE = 223.9697
ARG_OF_PERICENTER = 262.8047
MEAN_ANOMALY   = 41.0352

EPHEMERIS_TYPE = 0
CLASSIFICATION_TYPE = U
NORAD_CAT_ID   = 66804
ELEMENT_SET_NO = 999
REV_AT_EPOCH   = 369
BSTAR          = -.10494151E-1
MEAN_MOTION_DOT = -.1453403E-1
MEAN_MOTION_DDOT = 0

CCSDS_OMM_VERS = 2.0
CREATION_DATE  = 
ORIGINATOR     = 

OBJECT_NAME    = STARLINK-36049
OBJECT_ID      = 2025-278Q
CENTER_NAME    = EARTH
REF_FRAME      = TEME
TIME_SYSTEM    = UTC
MEAN_ELEMENT_THEORY = SGP/SGP4

EPOCH          = 2025-12-17T08:00:04.999680
MEAN_MOTION    = 15.75473632
ECCENTRICITY   = .00017443
INCLINATION    = 42.9990
RA_OF_ASC_NODE = 223.9598
ARG_OF_PERICENTER = 268.7539
MEAN_ANOMALY   = 38.9448

EPHEMERIS_TYPE = 0
CLASSIFICATION_TYPE = U
NORAD_CAT_ID   = 66805
ELEMENT_SET_NO = 999
REV_AT_EPOCH   = 369
BSTAR          = -.10318331E-1
MEAN_MOTION_DOT = -.1430046E-1
MEAN_MOTION_DDOT = 0

CCSDS_OMM_VERS = 2.0
CREATION_DATE  = 
ORIGINATOR     = 

OBJECT_NAME    = STARLINK-36069
OBJECT_ID      = 2025-278R
CENTER_NAME    = EARTH
REF_FRAME      = TEME
TIME_SYSTEM    = UTC
MEAN_ELEMENT_THEORY = SGP/SGP4

EPOCH          = 2025-12-17T08:00:04.999680
MEAN_MOTION    = 15.75465138
ECCENTRICITY   = .00019201
INCLINATION    = 42.9993
RA_OF_ASC_NODE = 223.9648
ARG_OF_PERICENTER = 271.5577
MEAN_ANOMALY   = 34.2284

EPHEMERIS_TYPE = 0
CLASSIFICATION_TYPE = U
NORAD_CAT_ID   = 66806
ELEMENT_SET_NO = 999
REV_AT_EPOCH   = 348
BSTAR          = -.10235151E-1
MEAN_MOTION_DOT = -.1419477E-1
MEAN_MOTION_DDOT = 0

CCSDS_OMM_VERS = 2.0
CREATION_DATE  = 
ORIGINATOR     = 

OBJECT_NAME    = STARLINK-36000
OBJECT_ID      = 2025-278S
CENTER_NAME    = EARTH
REF_FRAME      = TEME
TIME_SYSTEM    = UTC
MEAN_ELEMENT_THEORY = SGP/SGP4

EPOCH          = 2025-12-17T08:00:04.999680
MEAN_MOTION    = 15.75490128
ECCENTRICITY   = .0001974
INCLINATION    = 42.9991
RA_OF_ASC_NODE = 223.9503
ARG_OF_PERICENTER = 265.3871
MEAN_ANOMALY   = 46.1548

EPHEMERIS_TYPE = 0
CLASSIFICATION_TYPE = U
NORAD_CAT_ID   = 66807
ELEMENT_SET_NO = 999
REV_AT_EPOCH   = 375
BSTAR          = -.10634667E-1
MEAN_MOTION_DOT = -.1469776E-1
MEAN_MOTION_DDOT = 0

CCSDS_OMM_VERS = 2.0
CREATION_DATE  = 
ORIGINATOR     = 

OBJECT_NAME    = STARLINK-36071
OBJECT_ID      = 2025-278T
CENTER_NAME    = EARTH
REF_FRAME      = TEME
TIME_SYSTEM    = UTC
MEAN_ELEMENT_THEORY = SGP/SGP4

EPOCH          = 2025-12-17T08:00:04.999680
MEAN_MOTION    = 15.75490127
ECCENTRICITY   = .00020094
INCLINATION    = 42.9990
RA_OF_ASC_NODE = 223.9453
ARG_OF_PERICENTER = 264.4678
MEAN_ANOMALY   = 49.0327

EPHEMERIS_TYPE = 0
CLASSIFICATION_TYPE = U
NORAD_CAT_ID   = 66808
ELEMENT_SET_NO = 999
REV_AT_EPOCH   = 369
BSTAR          = -.10963318E-1
MEAN_MOTION_DOT = -.1509644E-1
MEAN_MOTION_DDOT = 0

CCSDS_OMM_VERS = 2.0
CREATION_DATE  = 
ORIGINATOR     = 

OBJECT_NAME    = STARLINK-35979
OBJECT_ID      = 2025-278U
CENTER_NAME    = EARTH
REF_FRAME      = TEME
TIME_SYSTEM    = UTC
MEAN_ELEMENT_THEORY = SGP/SGP4

EPOCH          = 2025-12-17T08:00:04.999680
MEAN_MOTION    = 15.75461132
ECCENTRICITY   = .00019921
INCLINATION    = 42.9992
RA_OF_ASC_NODE = 223.9306
ARG_OF_PERICENTER = 270.2418
MEAN_ANOMALY   = 48.9649

EPHEMERIS_TYPE = 0
CLASSIFICATION_TYPE = U
NORAD_CAT_ID   = 66809
ELEMENT_SET_NO = 999
REV_AT_EPOCH   = 369
BSTAR          = -.10192134E-1
MEAN_MOTION_DOT = -.1414015E-1
MEAN_MOTION_DDOT = 0

CCSDS_OMM_VERS = 2.0
CREATION_DATE  = 
ORIGINATOR     = 

OBJECT_NAME    = STARLINK-36046
OBJECT_ID      = 2025-278V
CENTER_NAME    = EARTH
REF_FRAME      = TEME
TIME_SYSTEM    = UTC
MEAN_ELEMENT_THEORY = SGP/SGP4

EPOCH          = 2025-12-17T08:00:04.999680
MEAN_MOTION    = 15.75473679
ECCENTRICITY   = .00020453
INCLINATION    = 42.9991
RA_OF_ASC_NODE = 223.9405
ARG_OF_PERICENTER = 265.3137
MEAN_ANOMALY   = 50.0462

EPHEMERIS_TYPE = 0
CLASSIFICATION_TYPE = U
NORAD_CAT_ID   = 66810
ELEMENT_SET_NO = 999
REV_AT_EPOCH   = 346
BSTAR          = -.10262433E-1
MEAN_MOTION_DOT = -.1423386E-1
MEAN_MOTION_DDOT = 0

CCSDS_OMM_VERS = 2.0
CREATION_DATE  = 
ORIGINATOR     = 

OBJECT_NAME    = STARLINK-36045
OBJECT_ID      = 2025-278W
CENTER_NAME    = EARTH
REF_FRAME      = TEME
TIME_SYSTEM    = UTC
MEAN_ELEMENT_THEORY = SGP/SGP4

EPOCH          = 2025-12-17T08:00:04.999680
MEAN_MOTION    = 15.75469583
ECCENTRICITY   = .00019488
INCLINATION    = 42.9990
RA_OF_ASC_NODE = 223.9359
ARG_OF_PERICENTER = 269.1296
MEAN_ANOMALY   = 48.1530

EPHEMERIS_TYPE = 0
CLASSIFICATION_TYPE = U
NORAD_CAT_ID   = 66811
ELEMENT_SET_NO = 999
REV_AT_EPOCH   = 369
BSTAR          = -.10260261E-1
MEAN_MOTION_DOT = -.1422827E-1
MEAN_MOTION_DDOT = 0

CCSDS_OMM_VERS = 2.0
CREATION_DATE  = 
ORIGINATOR     = 

OBJECT_NAME    = STARLINK-36054
OBJECT_ID      = 2025-278X
CENTER_NAME    = EARTH
REF_FRAME      = TEME
TIME_SYSTEM    = UTC
MEAN_ELEMENT_THEORY = SGP/SGP4

EPOCH          = 2025-12-17T08:00:04.999680
MEAN_MOTION    = 15.75464070
ECCENTRICITY   = .00022043
INCLINATION    = 42.9992
RA_OF_ASC_NODE = 223.9261
ARG_OF_PERICENTER = 272.3955
MEAN_ANOMALY   = 48.7290

EPHEMERIS_TYPE = 0
CLASSIFICATION_TYPE = U
NORAD_CAT_ID   = 66812
ELEMENT_SET_NO = 999
REV_AT_EPOCH   = 369
BSTAR          = -.10248952E-1
MEAN_MOTION_DOT = -.1421299E-1
MEAN_MOTION_DDOT = 0

