STARLINK-36080          
1 66801U 25278L   25351.33339120 -.01461765  00000+0 -10547-1 0  9994
2 66801  42.9990 223.9547 0002635 263.3536  46.1922 15.75528938  3697
STARLINK-35604          
1 66802U 25278M   25351.33339120 -.01419155  00000+0 -10232-1 0  9992
2 66802  42.9991 223.9842 0001798 273.5760  24.5380 15.75466680  3691
STARLINK-35565          
1 66803U 25278N   25351.33339120 -.01410211  00000+0 -10161-1 0  9998
2 66803  42.9991 223.9745 0001809 266.0863  35.8611 15.75462743  3786
STARLINK-36038          
1 66804U 25278P   25351.33339120 -.01453403  00000+0 -10494-1 0  9998
2 66804  42.9991 223.9697 0002247 262.8047  41.0352 15.75500199  3697
STARLINK-36049          
1 66805U 25278Q   25351.33339120 -.01430046  00000+0 -10318-1 0  9992
2 66805  42.9990 223.9598 0001744 268.7539  38.9448 15.75473632  3691
STARLINK-36069          
1 66806U 25278R   25351.33339120 -.01419477  00000+0 -10235-1 0  9996
2 66806  42.9993 223.9648 0001920 271.5577  34.2284 15.75465138  3487
STARLINK-36000          
1 66807U 25278S   25351.33339120 -.01469776  00000+0 -10635-1 0  9998
2 66807  42.9991 223.9503 0001974 265.3871  46.1548 15.75490128  3755
STARLINK-36071          
1 66808U 25278T   25351.33339120 -.01509644  00000+0 -10963-1 0  9992
2 66808  42.9990 223.9453 0002009 264.4678  49.0327 15.75490127  3693
STARLINK-35979          
1 66809U 25278U   25351.33339120 -.01414015  00000+0 -10192-1 0  9994
2 66809  42.9992 223.9306 0001992 270.2418  48.9649 15.75461132  3699
STARLINK-36046          
1 66810U 25278V   25351.33339120 -.01423386  00000+0 -10262-1 0  9995
2 66810  42.9991 223.9405 0002045 265.3137  50.0462 15.75473679  3464
STARLINK-36045          
1 66811U 25278W   25351.33339120 -.01422827  00000+0 -10260-1 0  9993
2 66811  42.9990 223.9359 0001948 269.1296  48.1530 15.75469583  3699
STARLINK-36054          
1 66812U 25278X   25351.33339120 -.01421299  00000+0 -10249-1 0  9993
2 66812  42.9992 223.9261 0002204 272.3955  48.7290 15.75464070  3693
